<?xml version="1.0" encoding="UTF-8"?>
<ndm xmlns:xsi="http://www.w3.org/2001/XMLSchema-instance" xsi:noNamespaceSchemaLocation="https://sanaregistry.org/r/ndmxml_unqualified/ndmxml-2.0.0-master-2.0.xsd">
<omm id="CCSDS_OMM_VERS" version="2.0">
<header><CREATION_DATE/><ORIGINATOR/></header><body><segment><metadata><OBJECT_NAME>ORBCOMM FM114</OBJECT_NAME><OBJECT_ID>2015-081A</OBJECT_ID><CENTER_NAME>EARTH</CENTER_NAME><REF_FRAME>TEME</REF_FRAME><TIME_SYSTEM>UTC</TIME_SYSTEM><MEAN_ELEMENT_THEORY>SGP4</MEAN_ELEMENT_THEORY></metadata><data><meanElements><EPOCH>2025-01-25T17:50:52.071072</EPOCH><MEAN_MOTION>14.57797137</MEAN_MOTION><ECCENTRICITY>.0001661</ECCENTRICITY><INCLINATION>47.0013</INCLINATION><RA_OF_ASC_NODE>239.4562</RA_OF_ASC_NODE><ARG_OF_PERICENTER>59.0709</ARG_OF_PERICENTER><MEAN_ANOMALY>301.0339</MEAN_ANOMALY></meanElements><tleParameters><EPHEMERIS_TYPE>0</EPHEMERIS_TYPE><CLASSIFICATION_TYPE>U</CLASSIFICATION_TYPE><NORAD_CAT_ID>41179</NORAD_CAT_ID><ELEMENT_SET_NO>999</ELEMENT_SET_NO><REV_AT_EPOCH>48373</REV_AT_EPOCH><BSTAR>.40696E-3</BSTAR><MEAN_MOTION_DOT>.171E-4</MEAN_MOTION_DOT><MEAN_MOTION_DDOT>0</MEAN_MOTION_DDOT></tleParameters></data></segment></body></omm>
<omm id="CCSDS_OMM_VERS" version="2.0">
<header><CREATION_DATE/><ORIGINATOR/></header><body><segment><metadata><OBJECT_NAME>ORBCOMM FM110</OBJECT_NAME><OBJECT_ID>2015-081D</OBJECT_ID><CENTER_NAME>EARTH</CENTER_NAME><REF_FRAME>TEME</REF_FRAME><TIME_SYSTEM>UTC</TIME_SYSTEM><MEAN_ELEMENT_THEORY>SGP4</MEAN_ELEMENT_THEORY></metadata><data><meanElements><EPOCH>2025-01-25T18:53:31.026624</EPOCH><MEAN_MOTION>14.57744938</MEAN_MOTION><ECCENTRICITY>.0002437</ECCENTRICITY><INCLINATION>46.9997</INCLINATION><RA_OF_ASC_NODE>238.6135</RA_OF_ASC_NODE><ARG_OF_PERICENTER>212.2705</ARG_OF_PERICENTER><MEAN_ANOMALY>147.8031</MEAN_ANOMALY></meanElements><tleParameters><EPHEMERIS_TYPE>0</EPHEMERIS_TYPE><CLASSIFICATION_TYPE>U</CLASSIFICATION_TYPE><NORAD_CAT_ID>41182</NORAD_CAT_ID><ELEMENT_SET_NO>999</ELEMENT_SET_NO><REV_AT_EPOCH>48374</REV_AT_EPOCH><BSTAR>.52077E-3</BSTAR><MEAN_MOTION_DOT>.2234E-4</MEAN_MOTION_DOT><MEAN_MOTION_DDOT>0</MEAN_MOTION_DDOT></tleParameters></data></segment></body></omm>
<omm id="CCSDS_OMM_VERS" version="2.0">
<header><CREATION_DATE/><ORIGINATOR/></header><body><segment><metadata><OBJECT_NAME>ORBCOMM FM118</OBJECT_NAME><OBJECT_ID>2015-081E</OBJECT_ID><CENTER_NAME>EARTH</CENTER_NAME><REF_FRAME>TEME</REF_FRAME><TIME_SYSTEM>UTC</TIME_SYSTEM><MEAN_ELEMENT_THEORY>SGP4</MEAN_ELEMENT_THEORY></metadata><data><meanElements><EPOCH>2025-01-25T10:14:15.057024</EPOCH><MEAN_MOTION>14.57676387</MEAN_MOTION><ECCENTRICITY>.0002777</ECCENTRICITY><INCLINATION>47.0025</INCLINATION><RA_OF_ASC_NODE>240.7273</RA_OF_ASC_NODE><ARG_OF_PERICENTER>205.5101</ARG_OF_PERICENTER><MEAN_ANOMALY>154.5648</MEAN_ANOMALY></meanElements><tleParameters><EPHEMERIS_TYPE>0</EPHEMERIS_TYPE><CLASSIFICATION_TYPE>U</CLASSIFICATION_TYPE><NORAD_CAT_ID>41183</NORAD_CAT_ID><ELEMENT_SET_NO>999</ELEMENT_SET_NO><REV_AT_EPOCH>48361</REV_AT_EPOCH><BSTAR>.37251E-3</BSTAR><MEAN_MOTION_DOT>.1547E-4</MEAN_MOTION_DOT><MEAN_MOTION_DDOT>0</MEAN_MOTION_DDOT></tleParameters></data></segment></body></omm>
<omm id="CCSDS_OMM_VERS" version="2.0">
<header><CREATION_DATE/><ORIGINATOR/></header><body><segment><metadata><OBJECT_NAME>ORBCOMM FM112</OBJECT_NAME><OBJECT_ID>2015-081F</OBJECT_ID><CENTER_NAME>EARTH</CENTER_NAME><REF_FRAME>TEME</REF_FRAME><TIME_SYSTEM>UTC</TIME_SYSTEM><MEAN_ELEMENT_THEORY>SGP4</MEAN_ELEMENT_THEORY></metadata><data><meanElements><EPOCH>2025-01-25T16:49:11.435520</EPOCH><MEAN_MOTION>14.57694076</MEAN_MOTION><ECCENTRICITY>.0000363</ECCENTRICITY><INCLINATION>46.9973</INCLINATION><RA_OF_ASC_NODE>148.0855</RA_OF_ASC_NODE><ARG_OF_PERICENTER>189.0915</ARG_OF_PERICENTER><MEAN_ANOMALY>170.9963</MEAN_ANOMALY></meanElements><tleParameters><EPHEMERIS_TYPE>0</EPHEMERIS_TYPE><CLASSIFICATION_TYPE>U</CLASSIFICATION_TYPE><NORAD_CAT_ID>41184</NORAD_CAT_ID><ELEMENT_SET_NO>999</ELEMENT_SET_NO><REV_AT_EPOCH>48492</REV_AT_EPOCH><BSTAR>.57421E-3</BSTAR><MEAN_MOTION_DOT>.2478E-4</MEAN_MOTION_DOT><MEAN_MOTION_DDOT>0</MEAN_MOTION_DDOT></tleParameters></data></segment></body></omm>
<omm id="CCSDS_OMM_VERS" version="2.0">
<header><CREATION_DATE/><ORIGINATOR/></header><body><segment><metadata><OBJECT_NAME>ORBCOMM FM113</OBJECT_NAME><OBJECT_ID>2015-081G</OBJECT_ID><CENTER_NAME>EARTH</CENTER_NAME><REF_FRAME>TEME</REF_FRAME><TIME_SYSTEM>UTC</TIME_SYSTEM><MEAN_ELEMENT_THEORY>SGP4</MEAN_ELEMENT_THEORY></metadata><data><meanElements><EPOCH>2025-01-25T12:58:14.687328</EPOCH><MEAN_MOTION>14.57693698</MEAN_MOTION><ECCENTRICITY>.0000663</ECCENTRICITY><INCLINATION>46.9990</INCLINATION><RA_OF_ASC_NODE>149.1438</RA_OF_ASC_NODE><ARG_OF_PERICENTER>183.5016</ARG_OF_PERICENTER><MEAN_ANOMALY>176.5865</MEAN_ANOMALY></meanElements><tleParameters><EPHEMERIS_TYPE>0</EPHEMERIS_TYPE><CLASSIFICATION_TYPE>U</CLASSIFICATION_TYPE><NORAD_CAT_ID>41185</NORAD_CAT_ID><ELEMENT_SET_NO>999</ELEMENT_SET_NO><REV_AT_EPOCH>48483</REV_AT_EPOCH><BSTAR>.55662E-3</BSTAR><MEAN_MOTION_DOT>.2397E-4</MEAN_MOTION_DOT><MEAN_MOTION_DDOT>0</MEAN_MOTION_DDOT></tleParameters></data></segment></body></omm>

</ndm>
