ORBCOMM FM114           
1 41179U 15081A   25025.74365823  .00001710  00000+0  40696-3 0  9995
2 41179  47.0013 239.4562 0001661  59.0709 301.0339 14.57797137483739
ORBCOMM FM110           
1 41182U 15081D   25025.78716466  .00002234  00000+0  52077-3 0  9994
2 41182  46.9997 238.6135 0002437 212.2705 147.8031 14.57744938483747
ORBCOMM FM118           
1 41183U 15081E   25025.42656316  .00001547  00000+0  37251-3 0  9996
2 41183  47.0025 240.7273 0002777 205.5101 154.5648 14.57676387483618
ORBCOMM FM112           
1 41184U 15081F   25025.70082680  .00002478  00000+0  57421-3 0  9990
2 41184  46.9973 148.0855 0000363 189.0915 170.9963 14.57694076484925
ORBCOMM FM113           
1 41185U 15081G   25025.54044777  .00002397  00000+0  55662-3 0  9993
2 41185  46.9990 149.1438 0000663 183.5016 176.5865 14.57693698484830
